{
  "norad_id": 61961,
  "name": "STARLINK-32452",
  "history": [
    {
      "epoch": "2026-03-28T22:11:21.883776Z",
      "apogee_km": 483.2466462565153,
      "perigee_km": 482.67717504693064,
      "latitude_deg": -4.59596271346367e-05,
      "longitude_deg": -95.0691541193394,
      "height_km": 482.45707554671304,
      "semi_major_axis_km": 6861.098910651723,
      "eccentricity": 4.15e-05,
      "inclination_deg": 43.0035,
      "raan_deg": 64.1101,
      "arg_perigee_deg": 350.3976,
      "mean_anomaly_deg": 9.6867,
      "mean_motion_rev_day": 15.27609117
    }
  ]
}